SCD 1                   
1 22490U 93009B   26159.00537779  .00000414  00000+0  62464-4 0  9993
2 22490  24.9694 264.2710 0042088  41.0648 119.5596 14.46115906759789
TECHSAT 1B (GO-32)      
1 25397U 98043D   26159.21376741  .00000063  00000+0  47383-4 0  9991
2 25397  99.0065 151.7461 0000556 186.8121 173.3049 14.24426650450050
SCD 2                   
1 25504U 98060A   26159.29287037  .00000406  00000+0  62552-4 0  9993
2 25504  24.9939 127.0086 0016857  30.0681 204.4538 14.45522407459034
DLR-TUBSAT              
1 25757U 99029B   26158.92435429  .00000120  00000+0  41233-4 0  9994
2 25757  98.6693 154.1236 0014630  22.9498 337.2347 14.52424541431907
TERRA                   
1 25994U 99068A   26159.24811162  .00000394  00000+0  89160-4 0  9992
2 25994  97.9459 209.1485 0000940 232.4953 169.4668 14.61096117408305
MAROC-TUBSAT            
1 27004U 01056D   26159.03159182 -.00000020  00000+0  30631-4 0  9996
2 27004  99.8079 335.7188 0020034 164.2847 309.1488 13.70262035224935
AQUA                    
1 27424U 02022A   26159.23942459  .00000845  00000+0  17787-3 0  9995
2 27424  98.4273 128.3438 0001460  54.6672  75.3358 14.62144763281969
SHIYAN-1 (SY-1)         
1 28220U 04012A   26159.17971735  .00011859  00000+0  36816-3 0  9994
2 28220  97.8687 236.6646 0006345  61.6692 298.5189 15.33530533209714
AURA                    
1 28376U 04026A   26159.22172932  .00000835  00000+0  17888-3 0  9999
2 28376  98.3413 115.6011 0001329  71.3511 288.7834 14.61315735164900
IRS-P5 (CARTOSAT-1)     
1 28649U 05017A   26159.01857767  .00001648  00000+0  17189-3 0  9993
2 28649  97.5310 182.4992 0002634  91.5445 268.6076 14.91026283142451
SINAH 1                 
1 28893U 05043D   26159.30672292  .00000342  00000+0  74448-4 0  9995
2 28893  98.2849 293.5771 0013332 307.2335  52.7650 14.64151843 99225
RESURS-DK 1             
1 29228U 06021A   26158.97910051  .00002799  00000+0  16340-3 0  9999
2 29228  69.9339   3.3886 0006437 299.3252  60.7270 15.13177297101180
ARIRANG-2 (KOMPSAT-2)   
1 29268U 06031A   26159.28669274  .00000273  00000+0  59663-4 0  9998
2 29268  97.8311 344.1640 0015859 100.0508  22.2606 14.64654252 60173
LAPAN-TUBSAT            
1 29709U 07001A   26159.23102434  .00001210  00000+0  14513-3 0  9997
2 29709  98.1348 158.2536 0011169 209.5936 150.4648 14.85944378 49828
HAIYANG-1B              
1 31113U 07010A   26159.19501532  .00000102  00000+0  54652-4 0  9994
2 31113  98.3490 141.3892 0012513 224.4780 135.5400 14.31024649999347
COSMO-SKYMED 1          
1 31598U 07023A   26159.24554297  .00002062  00000+0  18417-3 0  9992
2 31598  97.8858 351.0273 0001161  80.5042 279.6310 14.97059659 28454
TERRASAR-X              
1 31698U 07026A   26158.31148263  .00001018  00000+0  51664-4 0  9997
2 31698  97.4442 166.1612 0001874  80.9133 279.2314 15.19147499 51729
WORLDVIEW-1 (WV-1)      
1 32060U 07041A   26159.23244405  .00005599  00000+0  23289-3 0  9994
2 32060  97.3863 279.1064 0003057  45.4883 314.6604 15.24167093 41518
YAOGAN-3                
1 32289U 07055A   26159.33449837  .00001969  00000+0  20612-3 0  9993
2 32289  97.8158 189.3003 0001856  85.1899 274.9531 14.90747537  4550
COSMO-SKYMED 2          
1 32376U 07059A   26159.31714657  .00000151  00000+0  25541-4 0  9996
2 32376  97.8885 343.0440 0001418  84.8835 275.2540 14.82147493   699
RADARSAT-2              
1 32382U 07061A   26159.22148447 -.00000062  00000+0 -69493-5 0  9992
2 32382  98.5782 166.2821 0001302  81.0488 279.0842 14.29982598964671
CARTOSAT-2A             
1 32783U 08021A   26159.32044926  .00001055  00000+0  14865-3 0  9994
2 32783  97.7634 208.3316 0012676 134.7128 225.5119 14.79227367977491
HUANJING 1A (HJ-1A)     
1 33320U 08041A   26159.26581546  .00002124  00000+0  26067-3 0  9996
2 33320  97.6686 145.4500 0019174 162.8083 197.3785 14.83970037957085
HUANJING 1B (HJ-1B)     
1 33321U 08041B   26159.29831689  .00000529  00000+0  70298-4 0  9999
2 33321  97.6523 148.6796 0035180 210.7685 149.1467 14.83301345957097
GEOEYE 1                
1 33331U 08042A   26159.20288975  .00000497  00000+0  10226-3 0  9994
2 33331  98.1235 233.2478 0005571  91.0218 269.1623 14.64717550948832
THEOS                   
1 33396U 08049A   26159.30279369 -.00000078  00000+0 -16878-4 0  9997
2 33396  98.5569 216.8748 0001296  79.8460 280.2864 14.20131287916708
COSMO-SKYMED 3          
1 33412U 08054A   26159.24531131  .00002069  00000+0  14272-3 0  9998
2 33412  97.8291  17.6678 0014291 300.7559  59.2260 15.06893314955599
YAOGAN-4                
1 33446U 08061A   26158.78969477  .00001179  00000+0  15082-3 0  9990
2 33446  97.9306  92.3696 0015731 100.1685 260.1304 14.83183133944276
GOSAT (IBUKI)           
1 33492U 09002A   26159.20649657  .00000037  00000+0  15020-4 0  9995
2 33492  98.0882 270.4006 0001583  91.8430 268.2956 14.67539390930141
DEIMOS-1                
1 35681U 09041A   26159.30100882  .00000509  00000+0  82360-4 0  9998
2 35681  97.7400 316.9145 0001062 138.7832 221.3458 14.75228324905571
